{"type": "FeatureCollection", "features": [ {"type": "Feature", "properties": {"norad_id": 30481, "name": "FENGYUN 1C DEB", "group": "fengyun-1c-debris", "lat": 21.271270170409238, "lon": -163.9652883777129, "alt_km": 715.6612331722263, "timestamp": "2025-12-21T16:47:55.014932+00:00", "meta": {"OBJECT_NAME": "FENGYUN 1C DEB", "OBJECT_ID": "1999-025AGT", "EPOCH": "2025-12-20T12:24:24.891264", "MEAN_MOTION": 14.39066775, "ECCENTRICITY": 0.02231417, "INCLINATION": 98.3364, "RA_OF_ASC_NODE": 11.6114, "ARG_OF_PERICENTER": 236.4824, "MEAN_ANOMALY": 279.2705, "EPHEMERIS_TYPE": 0, "CLASSIFICATION_TYPE": "U", "NORAD_CAT_ID": 30481, "ELEMENT_SET_NO": 999, "REV_AT_EPOCH": 98595, "BSTAR": 0.00033850328, "MEAN_MOTION_DOT": 1.347e-05, "MEAN_MOTION_DDOT": 0}, "tle": {"line1": "1 30481U 99025AGT 25354.51695476  .00001347  00000+0  33850-3 0  9999", "line2": "2 30481  98.3364  11.6114 0223141 236.4824 279.2705 14.39066775985953"}}, "geometry": {"type": "Point", "coordinates": [-163.9652883777129, 21.271270170409238]}}, {"type": "Feature", "properties": {"norad_id": 30489, "name": "FENGYUN 1C DEB", "group": "fengyun-1c-debris", "lat": -12.010399290720628, "lon": 11.969213589454121, "alt_km": 875.1821155702564, "timestamp": "2025-12-21T16:47:55.014942+00:00", "meta": {"OBJECT_NAME": "FENGYUN 1C DEB", "OBJECT_ID": "1999-025AHB", "EPOCH": "2025-12-21T12:30:22.792032", "MEAN_MOTION": 14.15830504, "ECCENTRICITY": 0.013908, "INCLINATION": 98.4678, "RA_OF_ASC_NODE": 9.983, "ARG_OF_PERICENTER": 239.5357, "MEAN_ANOMALY": 275.8673, "EPHEMERIS_TYPE": 0, "CLASSIFICATION_TYPE": "U", "NORAD_CAT_ID": 30489, "ELEMENT_SET_NO": 999, "REV_AT_EPOCH": 97511, "BSTAR": 0.00021166, "MEAN_MOTION_DOT": 4.15e-06, "MEAN_MOTION_DDOT": 0}, "tle": {"line1": "1 30489U 99025AHB 25355.52109713  .00000415  00000+0  21166-3 0  9995", "line2": "2 30489  98.4678   9.9830 0139080 239.5357 275.8673 14.15830504975114"}}, "geometry": {"type": "Point", "coordinates": [11.969213589454121, -12.010399290720628]}}, {"type": "Feature", "properties": {"norad_id": 30490, "name": "FENGYUN 1C DEB", "group": "fengyun-1c-debris", "lat": -23.11455835584857, "lon": -55.159965867817085, "alt_km": 495.8002291826697, "timestamp": "2025-12-21T16:47:55.014952+00:00", "meta": {"OBJECT_NAME": "FENGYUN 1C DEB", "OBJECT_ID": "1999-025AHC", "EPOCH": "2025-12-21T01:47:29.080896", "MEAN_MOTION": 15.30030372, "ECCENTRICITY": 0.00454445, "INCLINATION": 98.3292, "RA_OF_ASC_NODE": 127.7248, "ARG_OF_PERICENTER": 86.729, "MEAN_ANOMALY": 273.9146, "EPHEMERIS_TYPE": 0, "CLASSIFICATION_TYPE": "U", "NORAD_CAT_ID": 30490, "ELEMENT_SET_NO": 999, "REV_AT_EPOCH": 99623, "BSTAR": 0.0024314449, "MEAN_MOTION_DOT": 0.00073457, "MEAN_MOTION_DDOT": 0}, "tle": {"line1": "1 30490U 99025AHC 25355.07464214  .00073457  00000+0  24314-2 0  9990", "line2": "2 30490  98.3292 127.7248 0045444  86.7290 273.9146 15.30030372996230"}}, "geometry": {"type": "Point", "coordinates": [-55.159965867817085, -23.11455835584857]}}, {"type": "Feature", "properties": {"norad_id": 30492, "name": "FENGYUN 1C DEB", "group": "fengyun-1c-debris", "lat": -7.60363779236017, "lon": -164.58943447563894, "alt_km": 779.7274171085264, "timestamp": "2025-12-21T16:47:55.014962+00:00", "meta": {"OBJECT_NAME": "FENGYUN 1C DEB", "OBJECT_ID": "1999-025AHE", "EPOCH": "2025-12-20T18:26:42.217152", "MEAN_MOTION": 14.52033474, "ECCENTRICITY": 0.00942675, "INCLINATION": 102.3243, "RA_OF_ASC_NODE": 15.7217, "ARG_OF_PERICENTER": 41.4166, "MEAN_ANOMALY": 319.4111, "EPHEMERIS_TYPE": 0, "CLASSIFICATION_TYPE": "U", "NORAD_CAT_ID": 30492, "ELEMENT_SET_NO": 999, "REV_AT_EPOCH": 97011, "BSTAR": 0.0018252299, "MEAN_MOTION_DOT": 7.741e-05, "MEAN_MOTION_DDOT": 0}, "tle": {"line1": "1 30492U 99025AHE 25354.76854418  .00007741  00000+0  18252-2 0  9993", "line2": "2 30492 102.3243  15.7217 0094267  41.4166 319.4111 14.52033474970119"}}, "geometry": {"type": "Point", "coordinates": [-164.58943447563894, -7.60363779236017]}}, {"type": "Feature", "properties": {"norad_id": 30493, "name": "FENGYUN 1C DEB", "group": "fengyun-1c-debris", "lat": 44.07116122147386, "lon": 176.9814775943912, "alt_km": 1024.385630288345, "timestamp": "2025-12-21T16:47:55.014973+00:00", "meta": {"OBJECT_NAME": "FENGYUN 1C DEB", "OBJECT_ID": "1999-025AHF", "EPOCH": "2025-12-21T11:32:53.736000", "MEAN_MOTION": 13.93028645, "ECCENTRICITY": 0.0180739, "INCLINATION": 98.5714, "RA_OF_ASC_NODE": 185.1743, "ARG_OF_PERICENTER": 192.5655, "MEAN_ANOMALY": 196.8682, "EPHEMERIS_TYPE": 0, "CLASSIFICATION_TYPE": "U", "NORAD_CAT_ID": 30493, "ELEMENT_SET_NO": 999, "REV_AT_EPOCH": 95217, "BSTAR": 0.0021723, "MEAN_MOTION_DOT": 3.191e-05, "MEAN_MOTION_DDOT": 0}, "tle": {"line1": "1 30493U 99025AHF 25355.48117750  .00003191  00000+0  21723-2 0  9997", "line2": "2 30493  98.5714 185.1743 0180739 192.5655 196.8682 13.93028645952170"}}, "geometry": {"type": "Point", "coordinates": [176.9814775943912, 44.07116122147386]}}, {"type": "Feature", "properties": {"norad_id": 30494, "name": "FENGYUN 1C DEB", "group": "fengyun-1c-debris", "lat": -65.77939646952, "lon": -170.41041028573102, "alt_km": 881.9014540083335, "timestamp": "2025-12-21T16:47:55.014983+00:00", "meta": {"OBJECT_NAME": "FENGYUN 1C DEB", "OBJECT_ID": "1999-025AHG", "EPOCH": "2025-12-20T20:27:26.731008", "MEAN_MOTION": 13.79394652, "ECCENTRICITY": 0.0186172, "INCLINATION": 99.2815, "RA_OF_ASC_NODE": 30.0747, "ARG_OF_PERICENTER": 200.8117, "MEAN_ANOMALY": 158.5384, "EPHEMERIS_TYPE": 0, "CLASSIFICATION_TYPE": "U", "NORAD_CAT_ID": 30494, "ELEMENT_SET_NO": 999, "REV_AT_EPOCH": 94598, "BSTAR": 0.0010376, "MEAN_MOTION_DOT": 1.17e-05, "MEAN_MOTION_DDOT": 0}, "tle": {"line1": "1 30494U 99025AHG 25354.85239272  .00001170  00000+0  10376-2 0  9999", "line2": "2 30494  99.2815  30.0747 0186172 200.8117 158.5384 13.79394652945989"}}, "geometry": {"type": "Point", "coordinates": [-170.41041028573102, -65.77939646952]}}, {"type": "Feature", "properties": {"norad_id": 30495, "name": "FENGYUN 1C DEB", "group": "fengyun-1c-debris", "lat": 29.258356905956585, "lon": 78.56023856871849, "alt_km": 1630.887835434537, "timestamp": "2025-12-21T16:47:55.014993+00:00", "meta": {"OBJECT_NAME": "FENGYUN 1C DEB", "OBJECT_ID": "1999-025AHH", "EPOCH": "2025-12-20T23:56:19.457952", "MEAN_MOTION": 12.94414774, "ECCENTRICITY": 0.05976213, "INCLINATION": 102.2602, "RA_OF_ASC_NODE": 84.7699, "ARG_OF_PERICENTER": 249.7981, "MEAN_ANOMALY": 103.7903, "EPHEMERIS_TYPE": 0, "CLASSIFICATION_TYPE": "U", "NORAD_CAT_ID": 30495, "ELEMENT_SET_NO": 999, "REV_AT_EPOCH": 88780, "BSTAR": 0.002688562, "MEAN_MOTION_DOT": 1.631e-05, "MEAN_MOTION_DDOT": 0}, "tle": {"line1": "1 30495U 99025AHH 25354.99744743  .00001631  00000+0  26886-2 0  9994", "line2": "2 30495 102.2602  84.7699 0597621 249.7981 103.7903 12.94414774887806"}}, "geometry": {"type": "Point", "coordinates": [78.56023856871849, 29.258356905956585]}}, {"type": "Feature", "properties": {"norad_id": 30496, "name": "FENGYUN 1C DEB", "group": "fengyun-1c-debris", "lat": -37.81176922388889, "lon": 75.7068597704094, "alt_km": 668.7202692663632, "timestamp": "2025-12-21T16:47:55.015003+00:00", "meta": {"OBJECT_NAME": "FENGYUN 1C DEB", "OBJECT_ID": "1999-025AHJ", "EPOCH": "2025-12-20T06:05:15.427392", "MEAN_MOTION": 14.94355955, "ECCENTRICITY": 0.0130213, "INCLINATION": 98.7847, "RA_OF_ASC_NODE": 260.9818, "ARG_OF_PERICENTER": 73.2308, "MEAN_ANOMALY": 288.3149, "EPHEMERIS_TYPE": 0, "CLASSIFICATION_TYPE": "U", "NORAD_CAT_ID": 30496, "ELEMENT_SET_NO": 999, "REV_AT_EPOCH": 1256, "BSTAR": 0.0003374109, "MEAN_MOTION_DOT": 4.215e-05, "MEAN_MOTION_DDOT": 0}, "tle": {"line1": "1 30496U 99025AHJ 25354.25365078  .00004215  00000+0  33741-3 0  9994", "line2": "2 30496  98.7847 260.9818 0130213  73.2308 288.3149 14.94355955 12563"}}, "geometry": {"type": "Point", "coordinates": [75.7068597704094, -37.81176922388889]}}, {"type": "Feature", "properties": {"norad_id": 30498, "name": "FENGYUN 1C DEB", "group": "fengyun-1c-debris", "lat": 14.654942868964818, "lon": 44.56585107811742, "alt_km": 906.4778785527633, "timestamp": "2025-12-21T16:47:55.015013+00:00", "meta": {"OBJECT_NAME": "FENGYUN 1C DEB", "OBJECT_ID": "1999-025AHL", "EPOCH": "2025-12-21T09:56:54.718080", "MEAN_MOTION": 14.0611368, "ECCENTRICITY": 0.0103969, "INCLINATION": 99.2381, "RA_OF_ASC_NODE": 46.714, "ARG_OF_PERICENTER": 132.2321, "MEAN_ANOMALY": 239.7907, "EPHEMERIS_TYPE": 0, "CLASSIFICATION_TYPE": "U", "NORAD_CAT_ID": 30498, "ELEMENT_SET_NO": 999, "REV_AT_EPOCH": 95891, "BSTAR": 0.0012821, "MEAN_MOTION_DOT": 2.166e-05, "MEAN_MOTION_DDOT": 0}, "tle": {"line1": "1 30498U 99025AHL 25355.41452220  .00002166  00000+0  12821-2 0  9999", "line2": "2 30498  99.2381  46.7140 0103969 132.2321 239.7907 14.06113680958911"}}, "geometry": {"type": "Point", "coordinates": [44.56585107811742, 14.654942868964818]}}, {"type": "Feature", "properties": {"norad_id": 30500, "name": "FENGYUN 1C DEB", "group": "fengyun-1c-debris", "lat": 46.47888184112699, "lon": -82.81784013311062, "alt_km": 769.2020920793202, "timestamp": "2025-12-21T16:47:55.015023+00:00", "meta": {"OBJECT_NAME": "FENGYUN 1C DEB", "OBJECT_ID": "1999-025AHN", "EPOCH": "2025-12-20T23:35:55.754016", "MEAN_MOTION": 14.25278458, "ECCENTRICITY": 0.00637958, "INCLINATION": 99.0725, "RA_OF_ASC_NODE": 86.7551, "ARG_OF_PERICENTER": 92.7547, "MEAN_ANOMALY": 324.3123, "EPHEMERIS_TYPE": 0, "CLASSIFICATION_TYPE": "U", "NORAD_CAT_ID": 30500, "ELEMENT_SET_NO": 999, "REV_AT_EPOCH": 96799, "BSTAR": 0.001602256, "MEAN_MOTION_DOT": 3.807e-05, "MEAN_MOTION_DDOT": 0}, "tle": {"line1": "1 30500U 99025AHN 25354.98328419  .00003807  00000+0  16023-2 0  9997", "line2": "2 30500  99.0725  86.7551 0063795  92.7547 324.3123 14.25278458967992"}}, "geometry": {"type": "Point", "coordinates": [-82.81784013311062, 46.47888184112699]}}]}